{
"type": "FeatureCollection",
"name": "EDIFICACOES",
"crs": { "type": "name", "properties": { "name": "urn:ogc:def:crs:EPSG::4674" } },
"features": [
{ "type": "Feature", "properties": { "id": null, "ID geo": null, "ÁREA EDIF": null }, "geometry": { "type": "MultiPolygon", "coordinates": [ [ [ [ -53.478747898934699, -30.504125225228599 ], [ -53.478747615710574, -30.504124404028914 ], [ -53.478747580619356, -30.504124413103344 ], [ -53.478747580619348, -30.504124413103337 ], [ -53.478717934621145, -30.504132079406418 ], [ -53.478721851641737, -30.504143436696303 ], [ -53.47868292170218, -30.504154840661478 ], [ -53.478695321777899, -30.504186391012702 ], [ -53.478737169117259, -30.50417377832137 ], [ -53.478736581563808, -30.504172135196086 ], [ -53.478762830587783, -30.504163320681062 ], [ -53.478747898934699, -30.504125225228599 ] ] ] ] } },
{ "type": "Feature", "properties": { "id": null, "ID geo": null, "ÁREA EDIF": null }, "geometry": { "type": "MultiPolygon", "coordinates": [ [ [ [ -53.478702502099438, -30.504253267926043 ], [ -53.478761713057821, -30.504235181751678 ], [ -53.478737356841172, -30.504175395298329 ], [ -53.478678145912916, -30.504193481460014 ], [ -53.478702502099438, -30.504253267926043 ] ] ] ] } },
{ "type": "Feature", "properties": { "id": null, "ID geo": 17, "ÁREA EDIF": null }, "geometry": { "type": "MultiPolygon", "coordinates": [ [ [ [ -53.478501762218393, -30.504079412512041 ], [ -53.478565917356079, -30.504069329577888 ], [ -53.478554806997813, -30.504016325253247 ], [ -53.478490651893026, -30.504026408180156 ], [ -53.478501762218393, -30.504079412512041 ] ] ] ] } },
{ "type": "Feature", "properties": { "id": null, "ID geo": 17, "ÁREA EDIF": null }, "geometry": { "type": "MultiPolygon", "coordinates": [ [ [ [ -53.478534552599676, -30.504000977615597 ], [ -53.478453123193972, -30.504013145719785 ], [ -53.478458768635626, -30.504041472469329 ], [ -53.478492745307726, -30.50403639529603 ], [ -53.478490651893026, -30.504026408180156 ], [ -53.478538133608211, -30.504018945727083 ], [ -53.478534552599676, -30.504000977615597 ] ] ] ] } },
{ "type": "Feature", "properties": { "id": null, "ID geo": null, "ÁREA EDIF": null }, "geometry": { "type": "MultiPolygon", "coordinates": [ [ [ [ -53.478431863243372, -30.504016549547305 ], [ -53.478525388142543, -30.503999438219473 ], [ -53.478523397127255, -30.503990115069001 ], [ -53.478423787218532, -30.503936573765532 ], [ -53.478413418992609, -30.503941599879408 ], [ -53.478405233709374, -30.503930943535842 ], [ -53.478382304506617, -30.503944259696745 ], [ -53.478431863243372, -30.504016549547305 ] ] ] ] } },
{ "type": "Feature", "properties": { "id": null, "ID geo": 26, "ÁREA EDIF": null }, "geometry": { "type": "MultiPolygon", "coordinates": [ [ [ [ -53.47831744201131, -30.504338766261139 ], [ -53.478290126889107, -30.504240362735992 ], [ -53.478202277582362, -30.504260354030471 ], [ -53.478229212758833, -30.504357391102179 ], [ -53.47831744201131, -30.504338766261139 ] ] ] ] } },
{ "type": "Feature", "properties": { "id": null, "ID geo": 12, "ÁREA EDIF": null }, "geometry": { "type": "MultiPolygon", "coordinates": [ [ [ [ -53.47805328303366, -30.504133808896718 ], [ -53.47805276526875, -30.504133894619855 ], [ -53.478052765268536, -30.504133894620097 ], [ -53.478019442694951, -30.504139683836449 ], [ -53.478021713081851, -30.504149489624822 ], [ -53.477963482575909, -30.504159598861143 ], [ -53.477986962925648, -30.504261007554582 ], [ -53.47807903392583, -30.504245023345401 ], [ -53.478055553486719, -30.504143614673392 ], [ -53.47805328303366, -30.504133808896718 ] ] ] ] } },
{ "type": "Feature", "properties": { "id": null, "ID geo": 12, "ÁREA EDIF": null }, "geometry": { "type": "MultiPolygon", "coordinates": [ [ [ [ -53.47801600605721, -30.504402134094398 ], [ -53.478076947388537, -30.504390402031003 ], [ -53.478057543064416, -30.504314828075874 ], [ -53.477996601776617, -30.504326560127833 ], [ -53.47801600605721, -30.504402134094398 ] ] ] ] } },
{ "type": "Feature", "properties": { "id": null, "ID geo": 1, "ÁREA EDIF": null }, "geometry": { "type": "MultiPolygon", "coordinates": [ [ [ [ -53.477714408145474, -30.504461384782957 ], [ -53.477807879852534, -30.504447078773719 ], [ -53.477778957872033, -30.504320555275861 ], [ -53.477694407208425, -30.504332685472374 ], [ -53.477715357153699, -30.504421000186234 ], [ -53.477706289007422, -30.504422613076052 ], [ -53.477714408145474, -30.504461384782957 ] ] ] ] } },
{ "type": "Feature", "properties": { "id": null, "ID geo": 13, "ÁREA EDIF": null }, "geometry": { "type": "MultiPolygon", "coordinates": [ [ [ [ -53.478298078074857, -30.504199607766957 ], [ -53.478393231872062, -30.504176228096057 ], [ -53.478374345309796, -30.504117046728716 ], [ -53.47828022327252, -30.504140182074433 ], [ -53.478298078074857, -30.504199607766957 ] ] ] ] } },
{ "type": "Feature", "properties": { "id": null, "ID geo": 13, "ÁREA EDIF": null }, "geometry": { "type": "MultiPolygon", "coordinates": [ [ [ [ -53.478374345309796, -30.504117046728716 ], [ -53.478364014980102, -30.504085535330283 ], [ -53.478269811689927, -30.504108422732436 ], [ -53.47828022327252, -30.504140182074433 ], [ -53.478374345309796, -30.504117046728716 ] ] ] ] } },
{ "type": "Feature", "properties": { "id": null, "ID geo": 21, "ÁREA EDIF": null }, "geometry": { "type": "MultiPolygon", "coordinates": [ [ [ [ -53.478203385183612, -30.504063806096688 ], [ -53.478254002138158, -30.504102506840088 ], [ -53.478324643554217, -30.504033231977481 ], [ -53.478274026611615, -30.503994531260741 ], [ -53.478203385183612, -30.504063806096688 ] ] ] ] } },
{ "type": "Feature", "properties": { "id": null, "ID geo": 21, "ÁREA EDIF": null }, "geometry": { "type": "MultiPolygon", "coordinates": [ [ [ [ -53.478317818452467, -30.504039925053817 ], [ -53.478269518264383, -30.504087290883518 ], [ -53.478282224966875, -30.504097437662118 ], [ -53.478367622513375, -30.504078004207507 ], [ -53.478317818452467, -30.504039925053817 ] ] ] ] } },
{ "type": "Feature", "properties": { "id": null, "ID geo": 13, "ÁREA EDIF": null }, "geometry": { "type": "MultiPolygon", "coordinates": [ [ [ [ -53.4781641132396, -30.504136567345 ], [ -53.478186390723586, -30.504224905354327 ], [ -53.478216937709213, -30.504219129377898 ], [ -53.478194660199662, -30.504130791375196 ], [ -53.4781641132396, -30.504136567345 ] ] ] ] } },
{ "type": "Feature", "properties": { "id": null, "ID geo": 13, "ÁREA EDIF": null }, "geometry": { "type": "MultiPolygon", "coordinates": [ [ [ [ -53.478282473338133, -30.504147670916264 ], [ -53.478269811689927, -30.504108422732436 ], [ -53.478194660199662, -30.504130791375196 ], [ -53.478202229605067, -30.504160806697445 ], [ -53.478282473338133, -30.504147670916264 ] ] ] ] } },
{ "type": "Feature", "properties": { "id": null, "ID geo": null, "ÁREA EDIF": null }, "geometry": { "type": "MultiPolygon", "coordinates": [ [ [ [ -53.478167604726345, -30.50409965013764 ], [ -53.478221575255574, -30.504036699970097 ], [ -53.478187851694372, -30.504015021305463 ], [ -53.478133881153333, -30.504077971459747 ], [ -53.478167604726345, -30.50409965013764 ] ] ] ] } },
{ "type": "Feature", "properties": { "id": null, "ID geo": null, "ÁREA EDIF": null }, "geometry": { "type": "MultiPolygon", "coordinates": [ [ [ [ -53.478221575255574, -30.504036699970097 ], [ -53.478254005855803, -30.503998871622226 ], [ -53.478214890635478, -30.503973727417844 ], [ -53.478183158035414, -30.504012005288445 ], [ -53.478221575255574, -30.504036699970097 ] ] ] ] } },
{ "type": "Feature", "properties": { "id": null, "ID geo": 3, "ÁREA EDIF": null }, "geometry": { "type": "MultiPolygon", "coordinates": [ [ [ [ -53.478007499611401, -30.504141388983921 ], [ -53.478052765268536, -30.504133894620097 ], [ -53.478114344190637, -30.504066624678376 ], [ -53.478086464902496, -30.504047489536546 ], [ -53.478099522612254, -30.504033225045202 ], [ -53.478065716790248, -30.504010022168806 ], [ -53.478052659078159, -30.504024286656911 ], [ -53.477969400720539, -30.50411523951572 ], [ -53.478007499611401, -30.504141388983921 ] ] ] ] } },
{ "type": "Feature", "properties": { "id": null, "ID geo": 22, "ÁREA EDIF": null }, "geometry": { "type": "MultiPolygon", "coordinates": [ [ [ [ -53.477809324966451, -30.503837681690879 ], [ -53.477897937756602, -30.50389255735282 ], [ -53.477968301049195, -30.503807640857961 ], [ -53.47788162176181, -30.503752488000138 ], [ -53.477809324966451, -30.503837681690879 ] ] ] ] } },
{ "type": "Feature", "properties": { "id": null, "ID geo": 14, "ÁREA EDIF": null }, "geometry": { "type": "MultiPolygon", "coordinates": [ [ [ [ -53.477749731409162, -30.503642508293265 ], [ -53.477687323172411, -30.503655863569243 ], [ -53.477712135014421, -30.503742797843387 ], [ -53.477718025225919, -30.503763435593616 ], [ -53.477780433525098, -30.50375008029955 ], [ -53.477774543301628, -30.503729442552778 ], [ -53.477749731409162, -30.503642508293265 ] ] ] ] } },
{ "type": "Feature", "properties": { "id": null, "ID geo": 19, "ÁREA EDIF": null }, "geometry": { "type": "MultiPolygon", "coordinates": [ [ [ [ -53.477539602059508, -30.503798054984415 ], [ -53.477648246670149, -30.503776914826943 ], [ -53.477627772591049, -30.503696482930863 ], [ -53.477518748214678, -30.503717696977798 ], [ -53.477539602059508, -30.503798054984415 ] ] ] ] } },
{ "type": "Feature", "properties": { "id": null, "ID geo": 16, "ÁREA EDIF": null }, "geometry": { "type": "MultiPolygon", "coordinates": [ [ [ [ -53.47780719988463, -30.5041762541601 ], [ -53.477878056620312, -30.504163221872705 ], [ -53.477859213410845, -30.504074128810107 ], [ -53.477785475226909, -30.504087691062992 ], [ -53.47780719988463, -30.5041762541601 ] ] ] ] } },
{ "type": "Feature", "properties": { "id": null, "ID geo": 23, "ÁREA EDIF": null }, "geometry": { "type": "MultiPolygon", "coordinates": [ [ [ [ -53.477721097390429, -30.503996253442466 ], [ -53.477652803943776, -30.504008714620564 ], [ -53.477676789937263, -30.50410727843536 ], [ -53.477745925299672, -30.504094663632291 ], [ -53.477721097390429, -30.503996253442466 ] ] ] ] } },
{ "type": "Feature", "properties": { "id": null, "ID geo": 23, "ÁREA EDIF": null }, "geometry": { "type": "MultiPolygon", "coordinates": [ [ [ [ -53.477777650320185, -30.504089180352022 ], [ -53.477845339367214, -30.504076297299086 ], [ -53.477825193811142, -30.503996934359268 ], [ -53.47775750481496, -30.504009817398977 ], [ -53.477777650320185, -30.504089180352022 ] ] ] ] } },
{ "type": "Feature", "properties": { "id": null, "ID geo": 23, "ÁREA EDIF": null }, "geometry": { "type": "MultiPolygon", "coordinates": [ [ [ [ -53.477808168315917, -30.503941086903158 ], [ -53.477734750167009, -30.503955074599251 ], [ -53.477749053034302, -30.504011425997884 ], [ -53.47775750481496, -30.504009817398977 ], [ -53.477822477936193, -30.50399745126418 ], [ -53.477808168315917, -30.503941086903158 ] ] ] ] } },
{ "type": "Feature", "properties": { "id": null, "ID geo": null, "ÁREA EDIF": null }, "geometry": { "type": "MultiPolygon", "coordinates": [ [ [ [ -53.477602067727808, -30.504672514982335 ], [ -53.477597848916702, -30.50460822887591 ], [ -53.477490663058923, -30.504612198755513 ], [ -53.477494275739488, -30.504677019424467 ], [ -53.477602067727808, -30.504672514982335 ] ] ] ] } },
{ "type": "Feature", "properties": { "id": null, "ID geo": 9, "ÁREA EDIF": null }, "geometry": { "type": "MultiPolygon", "coordinates": [ [ [ [ -53.477703754508312, -30.504664152059839 ], [ -53.477693624124747, -30.504592025949904 ], [ -53.477609585184133, -30.504600876018351 ], [ -53.47761971550748, -30.504673002138112 ], [ -53.477703754508312, -30.504664152059839 ] ] ] ] } },
{ "type": "Feature", "properties": { "id": null, "ID geo": null, "ÁREA EDIF": null }, "geometry": { "type": "MultiPolygon", "coordinates": [ [ [ [ -53.477733735313109, -30.504688646617019 ], [ -53.477817401166909, -30.504675769769751 ], [ -53.477793846613643, -30.504562382695784 ], [ -53.477710451749886, -30.504575217829668 ], [ -53.477733735313109, -30.504688646617019 ] ] ] ] } },
{ "type": "Feature", "properties": { "id": null, "ID geo": 15, "ÁREA EDIF": null }, "geometry": { "type": "MultiPolygon", "coordinates": [ [ [ [ -53.477918305223461, -30.504649001149907 ], [ -53.477899674894957, -30.504559318796833 ], [ -53.477796546960235, -30.504575381659293 ], [ -53.477815177199211, -30.504665064031972 ], [ -53.477918305223461, -30.504649001149907 ] ] ] ] } },
{ "type": "Feature", "properties": { "id": null, "ID geo": null, "ÁREA EDIF": null }, "geometry": { "type": "MultiPolygon", "coordinates": [ [ [ [ -53.477989736494855, -30.504546795533852 ], [ -53.478000636302703, -30.504592934890304 ], [ -53.478057858957307, -30.504582799264366 ], [ -53.478046959124235, -30.504536659914056 ], [ -53.477989736494855, -30.504546795533852 ] ] ] ] } },
{ "type": "Feature", "properties": { "id": null, "ID geo": 27, "ÁREA EDIF": null }, "geometry": { "type": "MultiPolygon", "coordinates": [ [ [ [ -53.47813934716303, -30.504587401150594 ], [ -53.478236159056742, -30.504566955839408 ], [ -53.478212517065124, -30.504483019193312 ], [ -53.478115673524734, -30.50450335152674 ], [ -53.47813934716303, -30.504587401150594 ] ] ] ] } },
{ "type": "Feature", "properties": { "id": null, "ID geo": null, "ÁREA EDIF": null }, "geometry": { "type": "MultiPolygon", "coordinates": [ [ [ [ -53.478323314607564, -30.50455020295594 ], [ -53.478439312109003, -30.504522368970562 ], [ -53.478421269397948, -30.50446599099315 ], [ -53.47830527195601, -30.504493824959255 ], [ -53.478323314607564, -30.50455020295594 ] ] ] ] } },
{ "type": "Feature", "properties": { "id": null, "ID geo": null, "ÁREA EDIF": null }, "geometry": { "type": "MultiPolygon", "coordinates": [ [ [ [ -53.478440717882656, -30.504522031649806 ], [ -53.478382791492756, -30.504535932572917 ], [ -53.478394055389508, -30.504571125526844 ], [ -53.478452090425584, -30.504557194680903 ], [ -53.478440717882656, -30.504522031649806 ] ] ] ] } },
{ "type": "Feature", "properties": { "id": null, "ID geo": 8, "ÁREA EDIF": null }, "geometry": { "type": "MultiPolygon", "coordinates": [ [ [ [ -53.478432549656958, -30.504659748666732 ], [ -53.478413424156543, -30.504566571497222 ], [ -53.478294183655059, -30.504595535465278 ], [ -53.478311197554632, -30.504678424836928 ], [ -53.478432549656958, -30.504659748666732 ] ] ] ] } },
{ "type": "Feature", "properties": { "id": null, "ID geo": 20, "ÁREA EDIF": null }, "geometry": { "type": "MultiPolygon", "coordinates": [ [ [ [ -53.478392323218713, -30.504772722285914 ], [ -53.478376794383792, -30.504685666272405 ], [ -53.478308237184642, -30.5046948353449 ], [ -53.478323031967911, -30.504777776527927 ], [ -53.478392323218713, -30.504772722285914 ] ] ] ] } },
{ "type": "Feature", "properties": { "id": null, "ID geo": null, "ÁREA EDIF": null }, "geometry": { "type": "MultiPolygon", "coordinates": [ [ [ [ -53.478393025498939, -30.50456790773482 ], [ -53.478382791492756, -30.504535932572917 ], [ -53.478310324349522, -30.504553322921321 ], [ -53.47830153361744, -30.504525857047675 ], [ -53.478229574935234, -30.504543125330976 ], [ -53.478248110419635, -30.504602683780124 ], [ -53.478393025498939, -30.50456790773482 ] ] ] ] } },
{ "type": "Feature", "properties": { "id": 14, "ID geo": 14, "ÁREA EDIF": null }, "geometry": { "type": "MultiPolygon", "coordinates": [ [ [ [ -53.477708866120985, -30.503731344497016 ], [ -53.477687323172411, -30.503655863569243 ], [ -53.477658286650282, -30.503662077333374 ], [ -53.477679829578484, -30.503737558267044 ], [ -53.477708866120985, -30.503731344497016 ] ] ] ] } },
{ "type": "Feature", "properties": { "id": null, "ID geo": 16, "ÁREA EDIF": null }, "geometry": { "type": "MultiPolygon", "coordinates": [ [ [ [ -53.47779798031624, -30.504219271985281 ], [ -53.477856429296637, -30.504208215682542 ], [ -53.477847211186948, -30.504169080162722 ], [ -53.477787996165638, -30.504179697368251 ], [ -53.47779798031624, -30.504219271985281 ] ] ] ] } },
{ "type": "Feature", "properties": { "id": null, "ID geo": 2, "ÁREA EDIF": null }, "geometry": { "type": "MultiPolygon", "coordinates": [ [ [ [ -53.478303314466523, -30.504241515662695 ], [ -53.478325573565279, -30.504324044485148 ], [ -53.478426329652699, -30.504304306826921 ], [ -53.478403488886876, -30.504219770805584 ], [ -53.478303314466523, -30.504241515662695 ] ] ] ] } },
{ "type": "Feature", "properties": { "id": null, "ID geo": 1, "ÁREA EDIF": null }, "geometry": { "type": "MultiPolygon", "coordinates": [ [ [ [ -53.477874881769139, -30.504346938107467 ], [ -53.477855650744772, -30.504266990848077 ], [ -53.477770236439902, -30.504282395984937 ], [ -53.477787448270547, -30.504357697862755 ], [ -53.477816910952448, -30.504352386764303 ], [ -53.477818065272274, -30.504357185415962 ], [ -53.477874881769139, -30.504346938107467 ] ] ] ] } },
{ "type": "Feature", "properties": { "id": null, "ID geo": 1, "ÁREA EDIF": null }, "geometry": { "type": "MultiPolygon", "coordinates": [ [ [ [ -53.477863795359525, -30.504414167472827 ], [ -53.477872812025829, -30.504445804037179 ], [ -53.477906353299808, -30.504439628689259 ], [ -53.477897070064529, -30.504407056859311 ], [ -53.477882056228104, -30.504354378174174 ], [ -53.477889609751855, -30.504352820413317 ], [ -53.477882545778037, -30.504321600087845 ], [ -53.477869471228004, -30.504324445408965 ], [ -53.477874881769139, -30.504346938107467 ], [ -53.477818065272274, -30.504357185415962 ], [ -53.477835998514159, -30.504420107491985 ], [ -53.477863795359525, -30.504414167472827 ] ] ] ] } },
{ "type": "Feature", "properties": { "id": null, "ID geo": 25, "ÁREA EDIF": null }, "geometry": { "type": "MultiPolygon", "coordinates": [ [ [ [ -53.478157919278843, -30.504141182783911 ], [ -53.47814210030441, -30.504143781972321 ], [ -53.478137622014941, -30.504124498418001 ], [ -53.478076991207665, -30.504135055803346 ], [ -53.478081336327527, -30.50415376597763 ], [ -53.478079559483177, -30.504154057926858 ], [ -53.478085090235275, -30.504179296484924 ], [ -53.478064551066957, -30.504182473970502 ], [ -53.478077878389882, -30.504240032756115 ], [ -53.478097644394332, -30.504236584995731 ], [ -53.478098037248728, -30.504238377710564 ], [ -53.478176397108022, -30.504225502553066 ], [ -53.478157919278843, -30.504141182783911 ] ] ] ] } },
{ "type": "Feature", "properties": { "id": null, "ID geo": 11, "ÁREA EDIF": null }, "geometry": { "type": "MultiPolygon", "coordinates": [ [ [ [ -53.478867344388377, -30.504209228143726 ], [ -53.478853449337784, -30.50417428357509 ], [ -53.478807844467049, -30.504151754743226 ], [ -53.478794634552678, -30.504155148738974 ], [ -53.478789697195957, -30.504142519662423 ], [ -53.478758296853314, -30.504151724287151 ], [ -53.478788799286193, -30.504229743401048 ], [ -53.478867344388377, -30.504209228143726 ] ] ] ] } },
{ "type": "Feature", "properties": { "id": null, "ID geo": null, "ÁREA EDIF": null }, "geometry": { "type": "MultiPolygon", "coordinates": [ [ [ [ -53.477560734269304, -30.503902971689094 ], [ -53.477576603200824, -30.503966520090337 ], [ -53.477587128754038, -30.503964549354034 ], [ -53.477711743667747, -30.5039412171961 ], [ -53.477695874654778, -30.503877668815718 ], [ -53.477640108125961, -30.503888110223684 ], [ -53.477636033749363, -30.503871794094334 ], [ -53.477567243823607, -30.503884918583331 ], [ -53.477571259816187, -30.503901000954411 ], [ -53.477560734269304, -30.503902971689094 ] ] ] ] } },
{ "type": "Feature", "properties": { "id": null, "ID geo": 7, "ÁREA EDIF": null }, "geometry": { "type": "MultiPolygon", "coordinates": [ [ [ [ -53.478133789149673, -30.503911208597771 ], [ -53.478070949706108, -30.503870133673519 ], [ -53.478049787033356, -30.503856300703575 ], [ -53.478013159473683, -30.503898063564847 ], [ -53.47803446214094, -30.503911988044685 ], [ -53.478020877487324, -30.50392757079792 ], [ -53.478083716950337, -30.503968645745157 ], [ -53.478133789149673, -30.503911208597771 ] ] ] ] } },
{ "type": "Feature", "properties": { "id": null, "ID geo": 5, "ÁREA EDIF": null }, "geometry": { "type": "MultiPolygon", "coordinates": [ [ [ [ -53.477931494215568, -30.504197505121883 ], [ -53.477927298336049, -30.504180794513044 ], [ -53.477955502924345, -30.504175697134482 ], [ -53.477949915693422, -30.504150922784312 ], [ -53.477878210024336, -30.504163948335037 ], [ -53.477847211186948, -30.504169080162722 ], [ -53.477856429296637, -30.504208215682542 ], [ -53.477856429246451, -30.504208215692035 ], [ -53.477857200749327, -30.504211491127357 ], [ -53.477872030479091, -30.504208700028332 ], [ -53.477931494215568, -30.504197505121883 ] ] ] ] } },
{ "type": "Feature", "properties": { "id": null, "ID geo": 5, "ÁREA EDIF": null }, "geometry": { "type": "MultiPolygon", "coordinates": [ [ [ [ -53.478002147060913, -30.504385769612959 ], [ -53.477983380987126, -30.504299528842569 ], [ -53.477914028562012, -30.504310843940637 ], [ -53.477932794578152, -30.50439708472415 ], [ -53.478002147060913, -30.504385769612959 ] ] ] ] } }
]
}
