{
"type": "FeatureCollection",
"name": "PERÍMETRO_DO_NÚCLEO",
"crs": { "type": "name", "properties": { "name": "urn:ogc:def:crs:EPSG::4674" } },
"features": [
{ "type": "Feature", "properties": { "Name": "Polígono sem título", "descriptio": null, "timestamp": null, "begin": null, "end": null, "altitudeMo": null, "tessellate": 1, "extrude": 0, "visibility": -1, "drawOrder": null, "icon": null }, "geometry": { "type": "MultiPolygon", "coordinates": [ [ [ [ -53.477671756663653, -30.50346692219809, 0.0 ], [ -53.477302776260757, -30.503513510962541, 0.0 ], [ -53.477566784047433, -30.504549467468934, 0.0 ], [ -53.477471357033053, -30.50456865163784, 0.0 ], [ -53.477515887183507, -30.504913971439912, 0.0 ], [ -53.478431988181271, -30.504787902146646, 0.0 ], [ -53.478482879458383, -30.504324736149467, 0.0 ], [ -53.478998183828388, -30.504239774229045, 0.0 ], [ -53.477671756663653, -30.50346692219809, 0.0 ] ] ] ] } }
]
}
