{
"type": "FeatureCollection",
"name": "SISTEMA_VIARIO",
"crs": { "type": "name", "properties": { "name": "urn:ogc:def:crs:EPSG::4674" } },
"features": [
{ "type": "Feature", "properties": { "id": null, "NOME": "Rua dos Nunes" }, "geometry": { "type": "MultiLineString", "coordinates": [ [ [ -53.478803795476324, -30.503470697797727 ], [ -53.478713461834438, -30.503484110369047 ], [ -53.478559117985931, -30.503502917075458 ], [ -53.478403264288097, -30.50351924651255 ], [ -53.478265517605138, -30.50352687860368 ], [ -53.478129455619815, -30.503524872889063 ], [ -53.478011293989603, -30.503525032356958 ], [ -53.477895187727114, -30.503530164248538 ], [ -53.477745214031771, -30.503550139780732 ], [ -53.477656766071298, -30.503561845219323 ], [ -53.477577810652832, -30.503570931267728 ], [ -53.477537077572308, -30.503577326807836 ], [ -53.47748932147492, -30.503588352602087 ], [ -53.477459917538319, -30.503606336524886 ] ] ] } },
{ "type": "Feature", "properties": { "id": null, "NOME": "Rua João Galvão Machado" }, "geometry": { "type": "MultiLineString", "coordinates": [ [ [ -53.47916452255123, -30.504200750926469 ], [ -53.479115292183586, -30.504218393200585 ], [ -53.479008048017704, -30.504249668484999 ], [ -53.478885440790393, -30.504283741828896 ], [ -53.478801219773182, -30.504309984865742 ], [ -53.478729919529236, -30.504332223287498 ], [ -53.478636327044271, -30.504350291827176 ], [ -53.478484726008851, -30.504363199412992 ], [ -53.478441142688744, -30.504375304743213 ], [ -53.478308443152926, -30.504410822466415 ], [ -53.478206909304873, -30.504439065025849 ], [ -53.478127328710265, -30.504458119560592 ], [ -53.478049999631729, -30.504470866689214 ], [ -53.477957810737507, -30.504487237508812 ], [ -53.477854073039076, -30.504504663199164 ], [ -53.477792626084593, -30.504516064002097 ], [ -53.477696347487274, -30.504523324446655 ], [ -53.477669108068412, -30.504525440340259 ] ] ] } },
{ "type": "Feature", "properties": { "id": null, "NOME": "Rua Luís Antônio Medeiros" }, "geometry": { "type": "MultiLineString", "coordinates": [ [ [ -53.477669108068412, -30.504525440340259 ], [ -53.477606842914341, -30.504464887228181 ], [ -53.477574231609815, -30.504402328052453 ], [ -53.477546664445086, -30.504336147104095 ], [ -53.477532007132005, -30.504271692364302 ], [ -53.477524342481082, -30.504216710251697 ], [ -53.477513049839715, -30.50411376905771 ], [ -53.477496714099239, -30.504002153423464 ], [ -53.477464824850244, -30.503885821944738 ], [ -53.477441241823875, -30.503792720081012 ], [ -53.477425149042311, -30.503728710253178 ], [ -53.477421696163951, -30.503668636406445 ], [ -53.477432830528763, -30.503638890679952 ], [ -53.477459917538319, -30.503606336524886 ] ] ] } },
{ "type": "Feature", "properties": { "id": null, "NOME": "Rua Veranópolis" }, "geometry": { "type": "MultiLineString", "coordinates": [ [ [ -53.477834259214227, -30.50353827955643 ], [ -53.477839205799818, -30.503588443323128 ], [ -53.477846477825793, -30.503619219868217 ], [ -53.477874797103908, -30.50366083785563 ], [ -53.477914031894386, -30.503696012189071 ], [ -53.478013985279681, -30.503757591552542 ], [ -53.478094915364323, -30.503810762355389 ], [ -53.47819005878786, -30.503872850705076 ], [ -53.478250768446983, -30.503908447731938 ], [ -53.478301354506492, -30.503944237317501 ], [ -53.478331952971601, -30.503971636784698 ], [ -53.478367981414515, -30.504003944566751 ], [ -53.478400804796451, -30.504042995477644 ], [ -53.478417926297517, -30.504071486584863 ], [ -53.47843370748987, -30.504104179541546 ], [ -53.478447740438327, -30.504144005556139 ], [ -53.47846552926471, -30.50419879498358 ], [ -53.478484261088425, -30.504252731196186 ], [ -53.478505005991899, -30.504309970187617 ], [ -53.4785215895471, -30.504360060801265 ], [ -53.47854470339567, -30.504404262683749 ], [ -53.478543686018092, -30.50444019867367 ], [ -53.478536131134021, -30.504477646932976 ], [ -53.478528084017739, -30.50452861655522 ], [ -53.478516926911716, -30.504583121411379 ], [ -53.478509727206102, -30.504622516105268 ], [ -53.478510775846289, -30.50466384204579 ], [ -53.478512407068678, -30.504728126841549 ], [ -53.478513270219203, -30.504781150097763 ], [ -53.478508899443852, -30.504817985157374 ], [ -53.478497838914471, -30.504877699330386 ], [ -53.47848471495162, -30.504948329845792 ], [ -53.478478839522879, -30.505001898941213 ], [ -53.478472704445323, -30.505064243316461 ], [ -53.478446364203599, -30.505128642642276 ], [ -53.478438385503843, -30.50519436317337 ], [ -53.478437295105344, -30.505257696905755 ], [ -53.478435015253112, -30.505327652936877 ], [ -53.478430432321126, -30.505394144131756 ], [ -53.478413733415621, -30.505496364829998 ] ] ] } }
]
}
